TRANSPORTER-16 OBJECT A
1 68416U 26067A   26111.83858245  .00006541  00000+0  31818-3 0  9999
2 68416  97.4511  71.1703 0004179 100.5085 259.6621 15.18729204  3398
JACK-002
1 68417U 26067B   26111.83946020  .00006284  00000+0  30642-3 0  9997
2 68417  97.4532  71.1746 0004033 102.6731 257.4954 15.18663084  3397
OPTISAT
1 68418U 26067C   26111.84059604  .00003144  00000+0  15550-3 0  9995
2 68418  97.4550  71.1786 0004030 113.3353 246.8305 15.18543628  3391
FEMTO-1
1 68419U 26067D   26112.82882863  .00002841  00000+0  14075-3 0  9990
2 68419  97.4505  72.1407 0003588  93.5044 266.6601 15.18561286  3542
ERMIS-2
1 68420U 26067E   26112.82810620  .00008240  00000+0  40005-3 0  9995
2 68420  97.4451  72.1271 0003652  85.3669 274.7983 15.18715298  3544
TRANSPORTER-16 OBJECT F
1 68421U 26067F   26112.83150839  .00003730  00000+0  18473-3 0  9999
2 68421  97.4481  72.1303 0002964  87.4094 272.7479 15.18383143  3542
TRANSPORTER-16 OBJECT G
1 68422U 26067G   26112.83193811  .00006260  00000+0  30772-3 0  9994
2 68422  97.4446  72.1197 0002841  85.3332 274.8227 15.18383217  3547
SPOQC
1 68423U 26067H   26111.84422427  .00004695  00000+0  23215-3 0  9997
2 68423  97.4468  71.1516 0002652  96.7183 263.4353 15.18307020  3391
SPACEVAN-002
1 68424U 26067J   26111.98379112  .00005134  00000+0  25727-3 0  9994
2 68424  97.4487  71.2758 0000954 165.4322 194.6940 15.17796658  3412
ERMIS-3
1 68425U 26067K   26112.83409955  .00004199  00000+0  20847-3 0  9997
2 68425  97.4553  72.1474 0002796 123.0568 237.0935 15.18228947  3542
TRANSPORTER-16 OBJECT L
1 68426U 26067L   26111.84319925  .00010692  00000+0  52125-3 0  9994
2 68426  97.4513  71.1656 0002895 128.5370 231.6124 15.18498491  3397
TRANSPORTER-16 OBJECT M
1 68427U 26067M   26112.83267627  .00007381  00000+0  36203-3 0  9996
2 68427  97.4513  72.1385 0002822 126.7853 233.3641 15.18401080  3542
OUT OF THE BOX (OOTB)
1 68428U 26067N   26112.77028431  .00002872  00000+0  14429-3 0  9994
2 68428  97.4535  72.0752 0002345 135.2540 224.8883 15.18072658  3539
TRANSPORTER-16 OBJECT P
1 68429U 26067P   26112.17768812  .00010326  00000+0  50821-3 0  9992
2 68429  97.4478  71.4723 0002011 171.3256 188.8013 15.18180003  3440
TRANSPORTER-16 OBJECT Q
1 68430U 26067Q   26111.84521247  .00006193  00000+0  30533-3 0  9991
2 68430  97.4468  71.1504 0002188 104.4064 255.7413 15.18286264  3392
2026-066D
1 68415U 26066D   26112.89744209  .00001378  00000+0  14431-3 0  9993
2 68415  84.9632 262.9159 0027608  87.1726 273.2656 14.88445072  3508
