[{"OBJECT_NAME":"2026-066D","OBJECT_ID":"2026-066D","EPOCH":"2026-04-22T21:32:18.996576","MEAN_MOTION":14.88445072,"ECCENTRICITY":0.0027608,"INCLINATION":84.9632,"RA_OF_ASC_NODE":262.9159,"ARG_OF_PERICENTER":87.1726,"MEAN_ANOMALY":273.2656,"EPHEMERIS_TYPE":0,"CLASSIFICATION_TYPE":"U","NORAD_CAT_ID":68415,"ELEMENT_SET_NO":999,"REV_AT_EPOCH":350,"BSTAR":0.00014431,"MEAN_MOTION_DOT":1.378e-5,"MEAN_MOTION_DDOT":0},{"OBJECT_NAME":"TRANSPORTER-16 OBJECT A","OBJECT_ID":"2026-067A","EPOCH":"2026-04-21T20:07:33.523680","MEAN_MOTION":15.18729204,"ECCENTRICITY":0.00041799,"INCLINATION":97.4511,"RA_OF_ASC_NODE":71.1703,"ARG_OF_PERICENTER":100.5085,"MEAN_ANOMALY":259.6621,"EPHEMERIS_TYPE":0,"CLASSIFICATION_TYPE":"U","NORAD_CAT_ID":68416,"ELEMENT_SET_NO":999,"REV_AT_EPOCH":339,"BSTAR":0.00031817736,"MEAN_MOTION_DOT":6.541e-5,"MEAN_MOTION_DDOT":0},{"OBJECT_NAME":"JACK-002","OBJECT_ID":"2026-067B","EPOCH":"2026-04-21T20:08:49.361280","MEAN_MOTION":15.18663084,"ECCENTRICITY":0.00040334,"INCLINATION":97.4532,"RA_OF_ASC_NODE":71.1746,"ARG_OF_PERICENTER":102.6731,"MEAN_ANOMALY":257.4954,"EPHEMERIS_TYPE":0,"CLASSIFICATION_TYPE":"U","NORAD_CAT_ID":68417,"ELEMENT_SET_NO":999,"REV_AT_EPOCH":339,"BSTAR":0.00030641896,"MEAN_MOTION_DOT":6.284e-5,"MEAN_MOTION_DDOT":0},{"OBJECT_NAME":"OPTISAT","OBJECT_ID":"2026-067C","EPOCH":"2026-04-21T20:10:27.497856","MEAN_MOTION":15.18543628,"ECCENTRICITY":0.00040306,"INCLINATION":97.455,"RA_OF_ASC_NODE":71.1786,"ARG_OF_PERICENTER":113.3353,"MEAN_ANOMALY":246.8305,"EPHEMERIS_TYPE":0,"CLASSIFICATION_TYPE":"U","NORAD_CAT_ID":68418,"ELEMENT_SET_NO":999,"REV_AT_EPOCH":339,"BSTAR":0.00015549992,"MEAN_MOTION_DOT":3.144e-5,"MEAN_MOTION_DDOT":0},{"OBJECT_NAME":"TRANSPORTER-16 OBJECT D","OBJECT_ID":"2026-067D","EPOCH":"2026-04-22T19:53:30.793632","MEAN_MOTION":15.18561286,"ECCENTRICITY":0.0003588,"INCLINATION":97.4505,"RA_OF_ASC_NODE":72.1407,"ARG_OF_PERICENTER":93.5044,"MEAN_ANOMALY":266.6601,"EPHEMERIS_TYPE":0,"CLASSIFICATION_TYPE":"U","NORAD_CAT_ID":68419,"ELEMENT_SET_NO":999,"REV_AT_EPOCH":354,"BSTAR":0.00014075,"MEAN_MOTION_DOT":2.841e-5,"MEAN_MOTION_DDOT":0},{"OBJECT_NAME":"ERMIS-2","OBJECT_ID":"2026-067E","EPOCH":"2026-04-22T19:52:28.375680","MEAN_MOTION":15.18715298,"ECCENTRICITY":0.0003652,"INCLINATION":97.4451,"RA_OF_ASC_NODE":72.1271,"ARG_OF_PERICENTER":85.3669,"MEAN_ANOMALY":274.7983,"EPHEMERIS_TYPE":0,"CLASSIFICATION_TYPE":"U","NORAD_CAT_ID":68420,"ELEMENT_SET_NO":999,"REV_AT_EPOCH":354,"BSTAR":0.00040005,"MEAN_MOTION_DOT":8.24e-5,"MEAN_MOTION_DDOT":0},{"OBJECT_NAME":"TRANSPORTER-16 OBJECT F","OBJECT_ID":"2026-067F","EPOCH":"2026-04-22T19:57:22.324896","MEAN_MOTION":15.18383143,"ECCENTRICITY":0.0002964,"INCLINATION":97.4481,"RA_OF_ASC_NODE":72.1303,"ARG_OF_PERICENTER":87.4094,"MEAN_ANOMALY":272.7479,"EPHEMERIS_TYPE":0,"CLASSIFICATION_TYPE":"U","NORAD_CAT_ID":68421,"ELEMENT_SET_NO":999,"REV_AT_EPOCH":354,"BSTAR":0.00018473,"MEAN_MOTION_DOT":3.73e-5,"MEAN_MOTION_DDOT":0},{"OBJECT_NAME":"TRANSPORTER-16 OBJECT G","OBJECT_ID":"2026-067G","EPOCH":"2026-04-22T19:57:59.452704","MEAN_MOTION":15.18383217,"ECCENTRICITY":0.0002841,"INCLINATION":97.4446,"RA_OF_ASC_NODE":72.1197,"ARG_OF_PERICENTER":85.3332,"MEAN_ANOMALY":274.8227,"EPHEMERIS_TYPE":0,"CLASSIFICATION_TYPE":"U","NORAD_CAT_ID":68422,"ELEMENT_SET_NO":999,"REV_AT_EPOCH":354,"BSTAR":0.00030772,"MEAN_MOTION_DOT":6.26e-5,"MEAN_MOTION_DDOT":0},{"OBJECT_NAME":"TRANSPORTER-16 OBJECT H","OBJECT_ID":"2026-067H","EPOCH":"2026-04-21T20:15:40.976928","MEAN_MOTION":15.1830702,"ECCENTRICITY":0.00026522,"INCLINATION":97.4468,"RA_OF_ASC_NODE":71.1516,"ARG_OF_PERICENTER":96.7183,"MEAN_ANOMALY":263.4353,"EPHEMERIS_TYPE":0,"CLASSIFICATION_TYPE":"U","NORAD_CAT_ID":68423,"ELEMENT_SET_NO":999,"REV_AT_EPOCH":339,"BSTAR":0.00023215334,"MEAN_MOTION_DOT":4.695e-5,"MEAN_MOTION_DDOT":0},{"OBJECT_NAME":"SPACEVAN-002","OBJECT_ID":"2026-067J","EPOCH":"2026-04-21T23:36:39.552768","MEAN_MOTION":15.17796658,"ECCENTRICITY":9.54e-5,"INCLINATION":97.4487,"RA_OF_ASC_NODE":71.2758,"ARG_OF_PERICENTER":165.4322,"MEAN_ANOMALY":194.694,"EPHEMERIS_TYPE":0,"CLASSIFICATION_TYPE":"U","NORAD_CAT_ID":68424,"ELEMENT_SET_NO":999,"REV_AT_EPOCH":341,"BSTAR":0.00025727086,"MEAN_MOTION_DOT":5.134e-5,"MEAN_MOTION_DDOT":0},{"OBJECT_NAME":"ERMIS-3","OBJECT_ID":"2026-067K","EPOCH":"2026-04-22T20:01:06.201120","MEAN_MOTION":15.18228947,"ECCENTRICITY":0.0002796,"INCLINATION":97.4553,"RA_OF_ASC_NODE":72.1474,"ARG_OF_PERICENTER":123.0568,"MEAN_ANOMALY":237.0935,"EPHEMERIS_TYPE":0,"CLASSIFICATION_TYPE":"U","NORAD_CAT_ID":68425,"ELEMENT_SET_NO":999,"REV_AT_EPOCH":354,"BSTAR":0.00020847,"MEAN_MOTION_DOT":4.199e-5,"MEAN_MOTION_DDOT":0},{"OBJECT_NAME":"TRANSPORTER-16 OBJECT L","OBJECT_ID":"2026-067L","EPOCH":"2026-04-21T20:14:12.415200","MEAN_MOTION":15.18498491,"ECCENTRICITY":0.00028951,"INCLINATION":97.4513,"RA_OF_ASC_NODE":71.1656,"ARG_OF_PERICENTER":128.537,"MEAN_ANOMALY":231.6124,"EPHEMERIS_TYPE":0,"CLASSIFICATION_TYPE":"U","NORAD_CAT_ID":68426,"ELEMENT_SET_NO":999,"REV_AT_EPOCH":339,"BSTAR":0.00052125015,"MEAN_MOTION_DOT":0.00010692,"MEAN_MOTION_DDOT":0},{"OBJECT_NAME":"TRANSPORTER-16 OBJECT M","OBJECT_ID":"2026-067M","EPOCH":"2026-04-22T19:59:03.229728","MEAN_MOTION":15.1840108,"ECCENTRICITY":0.0002822,"INCLINATION":97.4513,"RA_OF_ASC_NODE":72.1385,"ARG_OF_PERICENTER":126.7853,"MEAN_ANOMALY":233.3641,"EPHEMERIS_TYPE":0,"CLASSIFICATION_TYPE":"U","NORAD_CAT_ID":68427,"ELEMENT_SET_NO":999,"REV_AT_EPOCH":354,"BSTAR":0.00036203,"MEAN_MOTION_DOT":7.381e-5,"MEAN_MOTION_DDOT":0},{"OBJECT_NAME":"OUT OF THE BOX (OOTB)","OBJECT_ID":"2026-067N","EPOCH":"2026-04-22T18:29:12.564384","MEAN_MOTION":15.18072658,"ECCENTRICITY":0.0002345,"INCLINATION":97.4535,"RA_OF_ASC_NODE":72.0752,"ARG_OF_PERICENTER":135.254,"MEAN_ANOMALY":224.8883,"EPHEMERIS_TYPE":0,"CLASSIFICATION_TYPE":"U","NORAD_CAT_ID":68428,"ELEMENT_SET_NO":999,"REV_AT_EPOCH":353,"BSTAR":0.00014429,"MEAN_MOTION_DOT":2.872e-5,"MEAN_MOTION_DDOT":0},{"OBJECT_NAME":"TRANSPORTER-16 OBJECT P","OBJECT_ID":"2026-067P","EPOCH":"2026-04-22T04:15:52.253568","MEAN_MOTION":15.18180003,"ECCENTRICITY":0.00020118,"INCLINATION":97.4478,"RA_OF_ASC_NODE":71.4723,"ARG_OF_PERICENTER":171.3256,"MEAN_ANOMALY":188.8013,"EPHEMERIS_TYPE":0,"CLASSIFICATION_TYPE":"U","NORAD_CAT_ID":68429,"ELEMENT_SET_NO":999,"REV_AT_EPOCH":344,"BSTAR":0.00050821073,"MEAN_MOTION_DOT":0.00010326,"MEAN_MOTION_DDOT":0},{"OBJECT_NAME":"TRANSPORTER-16 OBJECT Q","OBJECT_ID":"2026-067Q","EPOCH":"2026-04-21T20:17:06.357408","MEAN_MOTION":15.18286264,"ECCENTRICITY":0.00021884,"INCLINATION":97.4468,"RA_OF_ASC_NODE":71.1504,"ARG_OF_PERICENTER":104.4064,"MEAN_ANOMALY":255.7413,"EPHEMERIS_TYPE":0,"CLASSIFICATION_TYPE":"U","NORAD_CAT_ID":68430,"ELEMENT_SET_NO":999,"REV_AT_EPOCH":339,"BSTAR":0.00030533262,"MEAN_MOTION_DOT":6.193e-5,"MEAN_MOTION_DDOT":0}]
